STARLINK-32688          
1 62193U 24229B   25165.23246271  .00020619  00000+0  75628-3 0  9994
2 62193  43.0058 346.8833 0002486 281.3618  78.6954 15.27597983 30566
STARLINK-32684          
1 62194U 24229C   25165.53369900  .00016189  00000+0  59735-3 0  9991
2 62194  43.0012 344.8386 0001328 261.5675  98.5026 15.27534800 30734
STARLINK-32672          
1 62195U 24229D   25165.54783766  .00020605  00000+0  75664-3 0  9990
2 62195  43.0033 344.9492 0001393 270.3132  89.7560 15.27561076 30577
STARLINK-32682          
1 62196U 24229E   25165.53774655  .00026969  00000+0  96070-3 0  9990
2 62196  43.0007 312.4578 0001617 267.7038  92.3629 15.28431786 30940
STARLINK-32663          
1 62197U 24229F   25165.51585813  .00028362  00000+0  10361-2 0  9992
2 62197  42.9958 345.5672 0000337  63.7502 296.3384 15.27583702 30617
STARLINK-32640          
1 62198U 24229G   25165.54012891  .00014095  00000+0  52089-3 0  9999
2 62198  43.0020 344.8882 0000337   9.1604 350.9254 15.27570690 30583
STARLINK-32653          
1 62199U 24229H   25165.56164391  .00025451  00000+0  93201-3 0  9994
2 62199  43.0007 338.0854 0001485 261.9874  98.0809 15.27551682 30828
STARLINK-32647          
1 62200U 24229J   25165.49657968  .00024109  00000+0  88276-3 0  9991
2 62200  43.0013 345.4185 0001152 230.7431 129.3319 15.27580686 30607
STARLINK-32667          
1 62201U 24229K   25165.52597149  .00019372  00000+0  71077-3 0  9997
2 62201  43.0016 344.7867 0001318 275.1672  84.9029 15.27619655 30584
STARLINK-32655          
1 62202U 24229L   25165.57353256  .00028655  00000+0  10466-2 0  9990
2 62202  42.9991 345.1334 0002419 274.4342  85.6234 15.27584228 30581
STARLINK-32665          
1 62203U 24229M   25165.55554877  .00019407  00000+0  71308-3 0  9999
2 62203  43.0019 345.0043 0000426 300.6460  59.4350 15.27572002 30697
STARLINK-32664          
1 62204U 24229N   25165.56584995  .00028800  00000+0  10531-2 0  9992
2 62204  43.0050 345.0823 0003103 294.1769  65.8758 15.27543893 30580
STARLINK-32660          
1 62205U 24229P   25165.53049887  .00025768  00000+0  94223-3 0  9997
2 62205  42.9991 330.9436 0001070 171.0726 189.0144 15.27594842 30738
STARLINK-32448          
1 62206U 24229Q   25165.52984732  .00003820  00000+0  14838-3 0  9993
2 62206  43.0009 344.8094 0001076 265.4041  94.6687 15.27552219 30587
STARLINK-32430          
1 62207U 24229R   25165.50221137  .00021472  00000+0  78747-3 0  9997
2 62207  43.0003 342.0039 0005466 287.3695  72.6558 15.27572501 30642
STARLINK-32675          
1 62208U 24229S   25165.55169118  .00022514  00000+0  82557-3 0  9995
2 62208  43.0015 344.9719 0001224 257.7493 102.3221 15.27563412 30680
STARLINK-32671          
1 62209U 24229T   25165.52228633  .00028310  00000+0  10344-2 0  9995
2 62209  42.9993 345.6154 0000637 112.5179 247.5740 15.27578492 30739
STARLINK-32670          
1 62210U 24229U   25165.54397995  .00019388  00000+0  71271-3 0  9999
2 62210  43.0025 344.9152 0001353 263.8474  96.2223 15.27557342 30559
STARLINK-32642          
1 62211U 24229V   25165.53755578  .00011947  00000+0  44314-3 0  9995
2 62211  43.0016 344.8679 0001132 262.8103  97.2620 15.27567521 30615
STARLINK-32668          
1 62212U 24229W   25165.50606311  .00029640  00000+0  10829-2 0  9995
2 62212  43.0017 342.0399 0000273 172.8845 187.2011 15.27561228 30616
STARLINK-32669          
1 62213U 24229X   25165.51199848  .00018468  00000+0  67859-3 0  9991
2 62213  42.9983 345.5323 0001399 276.0095  84.0597 15.27598120 30676
STARLINK-32666          
1 62214U 24229Y   25165.51843016  .00023296  00000+0  85323-3 0  9996
2 62214  43.0000 345.5871 0000833 116.2799 243.8138 15.27587305 30562
STARLINK-32662          
1 62215U 24229Z   25165.50429297  .00030206  00000+0  11024-2 0  9992
2 62215  43.0028 345.4757 0001877 270.2717  89.7920 15.27588144 30563
STARLINK-11394 [DTC]    
1 62218U 24231A   25165.52911273  .00163194  00000+0  13259-2 0  9995
2 62218  53.1567 343.2162 0000892 178.3126 181.7895 15.69703321 31196
STARLINK-11490 [DTC]    
1 62219U 24231B   25165.47032757  .00300505  00000+0  23839-2 0  9995
2 62219  53.1567 343.5618 0001003 177.7188 182.3835 15.69836935 31292
STARLINK-11466 [DTC]    
1 62220U 24231C   25165.48014747  .00256075  00000+0  20528-2 0  9991
2 62220  53.1567 343.6261 0000632 135.0117 225.0952 15.69722826 31237
STARLINK-11468 [DTC]    
1 62221U 24231D   25164.91691924  .00110336  00000+0  90203-3 0  9994
2 62221  53.1562 346.5157 0001397 165.4696 194.6363 15.69749525 31149
STARLINK-11488 [DTC]    
1 62222U 24231E   25165.47524018  .00267712  00000+0  21340-2 0  9992
2 62222  53.1572 343.5929 0000666 102.8998 257.2094 15.69822656 31024
STARLINK-11483 [DTC]    
1 62223U 24231F   25165.50457273  .00248563  00000+0  19842-2 0  9992
2 62223  53.1563 343.0525 0001383 160.9885 199.1185 15.69848957 31318
STARLINK-11492 [DTC]    
1 62224U 24231G   25165.23037417  .00260192  00000+0  20792-2 0  9995
2 62224  53.1569 344.9256 0000841  54.4722 305.6374 15.69786642 31216
STARLINK-11471 [DTC]    
1 62225U 24231H   25165.50947964  .00318179  00000+0  25149-2 0  9993
2 62225  53.1565 343.0956 0000933 191.3978 168.7019 15.69870378 30983
STARLINK-11475 [DTC]    
1 62226U 24231J   25165.51438529  .00323699  00000+0  25567-2 0  9994
2 62226  53.1560 343.1156 0000999 165.7058 194.3989 15.69870700 31248
STARLINK-11469 [DTC]    
1 62227U 24231K   25165.52418957  .00168734  00000+0  13672-2 0  9990
2 62227  53.1569 343.1796 0000825 141.3558 218.7519 15.69749760 31242
STARLINK-11476 [DTC]    
1 62228U 24231L   25165.49966825  .00209392  00000+0  16851-2 0  9997
2 62228  53.1570 343.0169 0000541 130.2683 229.8383 15.69778657 31259
STARLINK-11485 [DTC]    
1 62229U 24231M   25164.88258963  .00209440  00000+0  16853-2 0  9993
2 62229  53.1569 346.2852 0000579  83.0478 277.0606 15.69781216 30932
STARLINK-11481 [DTC]    
1 62230U 24231N   25164.92182570  .00162603  00000+0  13177-2 0  9995
2 62230  53.1564 346.5442 0001130 136.2302 223.8805 15.69767580 31139
STARLINK-32650          
1 62231U 24231P   25164.90512313  .00056642  00000+0  19088-2 0  9998
2 62231  53.1578  28.2977 0001358  94.8044 265.3111 15.30220735 30589
STARLINK-32636          
1 62232U 24231Q   25164.99564904  .00045447  00000+0  15357-2 0  9997
2 62232  53.1571  27.4414 0000826  98.5280 261.5814 15.30231460 30576
STARLINK-32643          
1 62233U 24231R   25165.01491075  .00066598  00000+0  16590-2 0  9990
2 62233  53.1586  23.3005 0001028  90.5766 269.5356 15.39646329 30662
STARLINK-32652          
1 62234U 24231S   25164.82291030  .00020051  00000+0  68691-3 0  9992
2 62234  53.1581  28.4905 0001180  35.6195 324.4884 15.30217841 30591
STARLINK-32631          
1 62235U 24231T   25164.89403752  .00045878  00000+0  11486-2 0  9999
2 62235  53.1580  23.9681 0000952  91.1034 269.0080 15.39658113 30634
STARLINK-32641          
1 62236U 24231U   25165.31594531  .00060798  00000+0  15170-2 0  9996
2 62236  53.1586  21.6244 0000891  88.1333 271.9774 15.39636945 30700
STARLINK-32632          
1 62262U 24231V   25165.02836692  .00047230  00000+0  15963-2 0  9996
2 62262  53.1590  27.6445 0001183  56.6092 303.5022 15.30207304 30599
STARLINK-11496 [DTC]    
1 62267U 24237A   25165.52876413  .00162003  00000+0  12418-2 0  9995
2 62267  42.9994 233.3444 0001434 275.1727  84.8977 15.70835528 30873
STARLINK-11501 [DTC]    
1 62268U 24237B   25165.49691120  .00219220  00000+0  16690-2 0  9992
2 62268  43.0011 233.0893 0002304 326.9477  33.1246 15.70814364 30821
STARLINK-11491 [DTC]    
1 62269U 24237C   25165.49159640  .00235636  00000+0  17885-2 0  9995
2 62269  42.9992 233.0444 0001045 280.1560  79.9190 15.70837041 30862
STARLINK-11479 [DTC]    
1 62270U 24237D   25165.25317648  .00243158  00000+0  18303-2 0  9999
2 62270  42.9992 234.7064 0002204 263.5882  96.4735 15.71011890 30822
STARLINK-11489 [DTC]    
1 62271U 24237E   25165.54469323  .00191383  00000+0  14605-2 0  9993
2 62271  42.9996 233.4733 0001206 269.5917  90.4813 15.70846600 30861
STARLINK-11494 [DTC]    
1 62272U 24237F   25165.52344400  .00185565  00000+0  14160-2 0  9991
2 62272  43.0008 233.2995 0002770 264.2240  95.8311 15.70864976 30828
STARLINK-11333 [DTC]    
1 62273U 24237G   25165.47048270  .00171593  00000+0  13127-2 0  9990
2 62273  43.0010 233.7693 0002222 274.0949  85.9665 15.70850684 30866
STARLINK-11504 [DTC]    
1 62274U 24237H   25165.51817043  .00171986  00000+0  13218-2 0  9995
2 62274  43.0002 233.2579 0001748 245.5256 114.5429 15.70739722 30824
STARLINK-11495 [DTC]    
1 62275U 24237J   25165.48641544  .00168237  00000+0  12803-2 0  9997
2 62275  42.9985 233.8952 0001661 226.3129 133.7601 15.70987190 30801
STARLINK-11498 [DTC]    
1 62276U 24237K   25165.24787517  .00311439  00000+0  23463-2 0  9991
2 62276  42.9980 234.6592 0003560 292.5488  67.5003 15.70781659 30823
STARLINK-11484 [DTC]    
1 62277U 24237L   25165.19490696  .00165971  00000+0  12727-2 0  9994
2 62277  43.0001 235.1308 0002141 276.9915  83.0709 15.70812656 30813
STARLINK-11487 [DTC]    
1 62278U 24237M   25165.47579161  .00227850  00000+0  17294-2 0  9990
2 62278  42.9996 233.8086 0001505 234.1849 125.8879 15.70861267 30868
STARLINK-11499 [DTC]    
1 62279U 24237N   25165.48732652  .00131658  00000+0  10134-2 0  9994
2 62279  42.9994 233.9015 0001057 249.0213 111.0541 15.70839336 30801
STARLINK-33548          
1 62280U 24237P   25165.33343843  .00041744  00000+0  10943-2 0  9994
2 62280  43.0017 281.2340 0004432 236.2913 123.7520 15.37979508 30270
STARLINK-33544          
1 62281U 24237Q   25165.37266418  .00005113  00000+0  19520-3 0  9992
2 62281  43.0026 291.9124 0000453 269.9198  90.1602 15.27575440 30157
STARLINK-33560          
1 62282U 24237R   25165.42005680  .00022257  00000+0  81559-3 0  9990
2 62282  42.9994 291.3972 0002015 243.2136 116.8510 15.27591722 30041
